{
  "type": "FeatureCollection",
  "features": [
    {
      "type": "Feature",
      "geometry": {
        "type": "LineString",
        "coordinates": [
          [
            -100.0,
            20.0,
            0.0
          ],
          [
            100.0,
            20.0,
            0.0
          ]
        ]
      }
    },
    {
      "type": "Feature",
      "geometry": {
        "type": "LineString",
        "coordinates": [
          [
            -100.0,
            0.0,
            0.0
          ],
          [
            100.0,
            0.0,
            0.0
          ]
        ]
      }
    },
    {
      "type": "Feature",
      "geometry": {
        "type": "LineString",
        "coordinates": [
          [
            100.0,
            0.0,
            0.0
          ],
          [
            200.0,
            0.0,
            0.0
          ]
        ]
      }
    },
    {
      "type": "Feature",
      "geometry": {
        "type": "LineString",
        "coordinates": [
          [
            -100.0,
            0.0,
            0.0
          ],
          [
            -200.0,
            0.0,
            0.0
          ]
        ]
      }
    },
    {
      "type": "Feature",
      "geometry": {
        "type": "LineString",
        "coordinates": [
          [
            -200.0,
            -300.0,
            0.0
          ],
          [
            -100.0,
            -300.0,
            0.0
          ]
        ]
      }
    },
    {
      "type": "Feature",
      "geometry": {
        "type": "LineString",
        "coordinates": [
          [
            -100.0,
            -300.0,
            0.0
          ],
          [
            100.0,
            -300.0,
            0.0
          ]
        ]
      }
    },
    {
      "type": "Feature",
      "geometry": {
        "type": "LineString",
        "coordinates": [
          [
            100.0,
            -300.0,
            0.0
          ],
          [
            200.0,
            -300.0,
            0.0
          ]
        ]
      }
    },
    {
      "type": "Feature",
      "geometry": {
        "type": "LineString",
        "coordinates": [
          [
            -100.0,
            20.0,
            0.0
          ],
          [
            -126.0,
            20.0,
            0.0
          ],
          [
            -150.0,
            10.0,
            0.0
          ]
        ]
      }
    },
    {
      "type": "Feature",
      "geometry": {
        "type": "LineString",
        "coordinates": [
          [
            -150.0,
            10.0,
            0.0
          ],
          [
            -174.0,
            0.0,
            0.0
          ],
          [
            -200.0,
            0.0,
            0.0
          ]
        ]
      }
    },
    {
      "type": "Feature",
      "geometry": {
        "type": "LineString",
        "coordinates": [
          [
            100.0,
            20.0,
            0.0
          ],
          [
            126.0,
            20.0,
            0.0
          ],
          [
            150.0,
            10.0,
            0.0
          ]
        ]
      }
    },
    {
      "type": "Feature",
      "geometry": {
        "type": "LineString",
        "coordinates": [
          [
            150.0,
            10.0,
            0.0
          ],
          [
            174.0,
            0.0,
            0.0
          ],
          [
            200.0,
            0.0,
            0.0
          ]
        ]
      }
    },
    {
      "type": "Feature",
      "geometry": {
        "type": "LineString",
        "coordinates": [
          [
            -100.0,
            -320.0,
            0.0
          ],
          [
            100.0,
            -320.0,
            0.0
          ]
        ]
      }
    },
    {
      "type": "Feature",
      "geometry": {
        "type": "LineString",
        "coordinates": [
          [
            100.0,
            -320.0,
            0.0
          ],
          [
            126.0,
            -320.0,
            0.0
          ],
          [
            150.0,
            -310.0,
            0.0
          ]
        ]
      }
    },
    {
      "type": "Feature",
      "geometry": {
        "type": "LineString",
        "coordinates": [
          [
            150.0,
            -310.0,
            0.0
          ],
          [
            174.0,
            -300.0,
            0.0
          ],
          [
            200.0,
            -300.0,
            0.0
          ]
        ]
      }
    },
    {
      "type": "Feature",
      "geometry": {
        "type": "LineString",
        "coordinates": [
          [
            -100.0,
            -320.0,
            0.0
          ],
          [
            -126.0,
            -320.0,
            0.0
          ],
          [
            -150.0,
            -310.0,
            0.0
          ]
        ]
      }
    },
    {
      "type": "Feature",
      "geometry": {
        "type": "LineString",
        "coordinates": [
          [
            -150.0,
            -310.0,
            0.0
          ],
          [
            -174.0,
            -300.0,
            0.0
          ],
          [
            -200.0,
            -300.0,
            0.0
          ]
        ]
      }
    },
    {
      "type": "Feature",
      "geometry": {
        "type": "LineString",
        "coordinates": [
          [
            200.0,
            0.0,
            0.0
          ],
          [
            500.0,
            0.0,
            0.0
          ]
        ]
      }
    },
    {
      "type": "Feature",
      "geometry": {
        "type": "LineString",
        "coordinates": [
          [
            500.0,
            0.0,
            0.0
          ],
          [
            650.0,
            0.0,
            0.0
          ],
          [
            650.0,
            -150.0,
            0.0
          ]
        ]
      }
    },
    {
      "type": "Feature",
      "geometry": {
        "type": "LineString",
        "coordinates": [
          [
            650.0,
            -150.0,
            0.0
          ],
          [
            650.0,
            -300.0,
            0.0
          ],
          [
            500.0,
            -300.0,
            0.0
          ]
        ]
      }
    },
    {
      "type": "Feature",
      "geometry": {
        "type": "LineString",
        "coordinates": [
          [
            500.0,
            -300.0,
            0.0
          ],
          [
            200.0,
            -300.0,
            0.0
          ]
        ]
      }
    },
    {
      "type": "Feature",
      "geometry": {
        "type": "LineString",
        "coordinates": [
          [
            -200.0,
            -300.0,
            0.0
          ],
          [
            -500.0,
            -300.0,
            0.0
          ]
        ]
      }
    },
    {
      "type": "Feature",
      "geometry": {
        "type": "LineString",
        "coordinates": [
          [
            -500.0,
            -300.0,
            0.0
          ],
          [
            -650.0,
            -300.0,
            0.0
          ],
          [
            -650.0,
            -150.0,
            0.0
          ]
        ]
      }
    },
    {
      "type": "Feature",
      "geometry": {
        "type": "LineString",
        "coordinates": [
          [
            -200.0,
            0.0,
            0.0
          ],
          [
            -500.0,
            0.0,
            0.0
          ]
        ]
      }
    },
    {
      "type": "Feature",
      "geometry": {
        "type": "LineString",
        "coordinates": [
          [
            -500.0,
            0.0,
            0.0
          ],
          [
            -650.0,
            0.0,
            0.0
          ],
          [
            -650.0,
            -150.0,
            0.0
          ]
        ]
      }
    }
  ],
  "signals": [
    {
      "from": [
        100.0,
        -300.0,
        0.0
      ],
      "to": [
        200.0,
        -300.0,
        0.0
      ]
    },
    {
      "from": [
        -100.0,
        0.0,
        0.0
      ],
      "to": [
        -200.0,
        0.0,
        0.0
      ]
    },
    {
      "from": [
        -100.0,
        -320.0,
        0.0
      ],
      "to": [
        -150.0,
        -310.0,
        0.0
      ]
    },
    {
      "from": [
        100.0,
        20.0,
        0.0
      ],
      "to": [
        150.0,
        10.0,
        0.0
      ]
    }
  ],
  "trains": []
}